{"type": "Feature", "geometry": {"type": "Point", "coordinates": ["-78.25", "45.3"]}, "properties": {"temperature": "2", "pressure": "1,007", "localTime": "Thu Nov 30 2023 16:09:58 GMT-0500 (hora est\u00e1ndar de Colombia)", "julianTime": "1701378598", "utcTime": "4:10:09 PM", "altitude": "475.53", "elevation": "-45.9", "TLE": {"Norad_Id": 56205, "International_Classification": "Unclassified", "International_Designation": "23054AD", "Epoch_Time_(ISO)": "2023-11-30T10:59:11Z", "First_Derivative_Mean_Motion": 0.00032093000000000003, "Second_Derivative_Mean_Motion": 0.0, "Inclination": 97.3871, "Right_Ascension_of_the_Ascending_Node": 227.7926, "Eccentricity": 0.001468, "Argument_of_Perigee": 135.222, "Mean_Anomaly": 225.0207, "Mean_Motion": 15.283507570000001, "Revolution_Number_at_Epoch": 3554}}}